TEVEL2-3                
1 63218U 25052J   26068.64540225  .00020365  00000+0  69446-3 0  9991
2 63218  97.3994 324.7775 0004761 105.7353 254.4413 15.30377031 54855
STARLINK-35948          
1 66633U 25271S   26068.47021056  .00027834  00000+0  94805-3 0  9990
2 66633  53.1581 140.9150 0001221  80.2539 279.8599 15.30210809 17536
